{
  "type": "FeatureCollection",
  "features": [
    {
      "type": "Feature",
      "properties": {
        "norad_id": 42989,
        "name": "SKYSAT-C9",
        "group": "resource",
        "lat": -82.33459459489886,
        "lon": -154.42309124330694,
        "alt_km": 469.07416197030943,
        "timestamp": "2025-12-25T16:53:14.311510+00:00",
        "meta_object_name": "SKYSAT-C9",
        "meta_object_id": "2017-068C",
        "meta_epoch": "2025-12-25T07:53:29.378400",
        "meta_mean_motion": 15.36363881,
        "meta_eccentricity": 0.00102424,
        "meta_inclination": 97.4193,
        "meta_ra_of_asc_node": 129.6845,
        "meta_arg_of_pericenter": 47.2855,
        "meta_mean_anomaly": 312.925,
        "meta_ephemeris_type": 0,
        "meta_classification_type": "U",
        "meta_norad_cat_id": 42989,
        "meta_element_set_no": 999,
        "meta_rev_at_epoch": 45601,
        "meta_bstar": 0.00039020663,
        "meta_mean_motion_dot": 0.00013787,
        "meta_mean_motion_ddot": 0,
        "tle_line1": "1 42989U 17068C   25359.32881225  .00013787  00000+0  39021-3 0  9992",
        "tle_line2": "2 42989  97.4193 129.6845 0010242  47.2855 312.9250 15.36363881456014"
      },
      "geometry": {
        "type": "Point",
        "coordinates": [
          -154.42309124330694,
          -82.33459459489886
        ]
      }
    },
    {
      "type": "Feature",
      "properties": {
        "norad_id": 42990,
        "name": "SKYSAT-C8",
        "group": "resource",
        "lat": 80.43491215108415,
        "lon": 0.5058419800245723,
        "alt_km": 459.51126690674846,
        "timestamp": "2025-12-25T16:53:14.311520+00:00",
        "meta_object_name": "SKYSAT-C8",
        "meta_object_id": "2017-068D",
        "meta_epoch": "2025-12-24T20:06:25.740288",
        "meta_mean_motion": 15.33182235,
        "meta_eccentricity": 9.448e-05,
        "meta_inclination": 97.4288,
        "meta_ra_of_asc_node": 128.8929,
        "meta_arg_of_pericenter": 271.5017,
        "meta_mean_anomaly": 88.6117,
        "meta_ephemeris_type": 0,
        "meta_classification_type": "U",
        "meta_norad_cat_id": 42990,
        "meta_element_set_no": 999,
        "meta_rev_at_epoch": 45556,
        "meta_bstar": 0.00038956306,
        "meta_mean_motion_dot": 0.00012417,
        "meta_mean_motion_ddot": 0,
        "tle_line1": "1 42990U 17068D   25358.83779792  .00012417  00000+0  38956-3 0  9999",
        "tle_line2": "2 42990  97.4288 128.8929 0000944 271.5017  88.6117 15.33182235455562"
      },
      "geometry": {
        "type": "Point",
        "coordinates": [
          0.5058419800245723,
          80.43491215108415
        ]
      }
    },
    {
      "type": "Feature",
      "properties": {
        "norad_id": 42991,
        "name": "SKYSAT-C7",
        "group": "resource",
        "lat": -74.71521315184728,
        "lon": 159.31542975707214,
        "alt_km": 475.6047926372412,
        "timestamp": "2025-12-25T16:53:14.311530+00:00",
        "meta_object_name": "SKYSAT-C7",
        "meta_object_id": "2017-068E",
        "meta_epoch": "2025-12-25T07:49:08.478912",
        "meta_mean_motion": 15.32590017,
        "meta_eccentricity": 0.00068385,
        "meta_inclination": 97.4295,
        "meta_ra_of_asc_node": 130.4139,
        "meta_arg_of_pericenter": 17.3403,
        "meta_mean_anomaly": 342.8071,
        "meta_ephemeris_type": 0,
        "meta_classification_type": "U",
        "meta_norad_cat_id": 42991,
        "meta_element_set_no": 999,
        "meta_rev_at_epoch": 45570,
        "meta_bstar": 0.00038873707,
        "meta_mean_motion_dot": 0.00012169,
        "meta_mean_motion_ddot": 0,
        "tle_line1": "1 42991U 17068E   25359.32579258  .00012169  00000+0  38874-3 0  9993",
        "tle_line2": "2 42991  97.4295 130.4139 0006838  17.3403 342.8071 15.32590017455706"
      },
      "geometry": {
        "type": "Point",
        "coordinates": [
          159.31542975707214,
          -74.71521315184728
        ]
      }
    },
    {
      "type": "Feature",
      "properties": {
        "norad_id": 42992,
        "name": "SKYSAT-C6",
        "group": "resource",
        "lat": 1.0496481398392263,
        "lon": 131.08423443074238,
        "alt_km": 471.2542371079935,
        "timestamp": "2025-12-25T16:53:14.311540+00:00",
        "meta_object_name": "SKYSAT-C6",
        "meta_object_id": "2017-068F",
        "meta_epoch": "2025-12-24T20:30:02.163744",
        "meta_mean_motion": 15.31732317,
        "meta_eccentricity": 0.0004766,
        "meta_inclination": 97.4329,
        "meta_ra_of_asc_node": 130.3693,
        "meta_arg_of_pericenter": 49.5424,
        "meta_mean_anomaly": 310.6233,
        "meta_ephemeris_type": 0,
        "meta_classification_type": "U",
        "meta_norad_cat_id": 42992,
        "meta_element_set_no": 999,
        "meta_rev_at_epoch": 45561,
        "meta_bstar": 0.00038047,
        "meta_mean_motion_dot": 0.00011588,
        "meta_mean_motion_ddot": 0,
        "tle_line1": "1 42992U 17068F   25358.85419171  .00011588  00000+0  38047-3 0  9994",
        "tle_line2": "2 42992  97.4329 130.3693 0004766  49.5424 310.6233 15.31732317455610"
      },
      "geometry": {
        "type": "Point",
        "coordinates": [
          131.08423443074238,
          1.0496481398392263
        ]
      }
    },
    {
      "type": "Feature",
      "properties": {
        "norad_id": 43111,
        "name": "CARTOSAT-2F",
        "group": "resource",
        "lat": -70.04615418523417,
        "lon": -143.93440273674088,
        "alt_km": 516.3012728259637,
        "timestamp": "2025-12-25T16:53:14.311550+00:00",
        "meta_object_name": "CARTOSAT-2F",
        "meta_object_id": "2018-004A",
        "meta_epoch": "2025-12-25T07:52:49.641312",
        "meta_mean_motion": 15.19244091,
        "meta_eccentricity": 0.00016368,
        "meta_inclination": 97.4295,
        "meta_ra_of_asc_node": 56.7613,
        "meta_arg_of_pericenter": 110.7706,
        "meta_mean_anomaly": 249.3705,
        "meta_ephemeris_type": 0,
        "meta_classification_type": "U",
        "meta_norad_cat_id": 43111,
        "meta_element_set_no": 999,
        "meta_rev_at_epoch": 44093,
        "meta_bstar": 0.0002723984,
        "meta_mean_motion_dot": 5.673e-05,
        "meta_mean_motion_ddot": 0,
        "tle_line1": "1 43111U 18004A   25359.32835233  .00005673  00000+0  27240-3 0  9994",
        "tle_line2": "2 43111  97.4295  56.7613 0001636 110.7706 249.3705 15.19244091440930"
      },
      "geometry": {
        "type": "Point",
        "coordinates": [
          -143.93440273674088,
          -70.04615418523417
        ]
      }
    },
    {
      "type": "Feature",
      "properties": {
        "norad_id": 43259,
        "name": "GAOFEN-1 02",
        "group": "resource",
        "lat": -2.920633231359048,
        "lon": -122.91874167272886,
        "alt_km": 642.1536269574935,
        "timestamp": "2025-12-25T16:53:14.311561+00:00",
        "meta_object_name": "GAOFEN-1 02",
        "meta_object_id": "2018-031A",
        "meta_epoch": "2025-12-25T06:18:10.063872",
        "meta_mean_motion": 14.76440967,
        "meta_eccentricity": 0.00026432,
        "meta_inclination": 98.0785,
        "meta_ra_of_asc_node": 57.0554,
        "meta_arg_of_pericenter": 171.2081,
        "meta_mean_anomaly": 188.9175,
        "meta_ephemeris_type": 0,
        "meta_classification_type": "U",
        "meta_norad_cat_id": 43259,
        "meta_element_set_no": 999,
        "meta_rev_at_epoch": 41703,
        "meta_bstar": 0.00019435462,
        "meta_mean_motion_dot": 1.3e-05,
        "meta_mean_motion_ddot": 0,
        "tle_line1": "1 43259U 18031A   25359.26261648  .00001300  00000+0  19435-3 0  9993",
        "tle_line2": "2 43259  98.0785  57.0554 0002643 171.2081 188.9175 14.76440967417035"
      },
      "geometry": {
        "type": "Point",
        "coordinates": [
          -122.91874167272886,
          -2.920633231359048
        ]
      }
    },
    {
      "type": "Feature",
      "properties": {
        "norad_id": 43260,
        "name": "GAOFEN-1 03",
        "group": "resource",
        "lat": -60.036644358044384,
        "lon": 71.63469528954148,
        "alt_km": 646.8091620992664,
        "timestamp": "2025-12-25T16:53:14.311571+00:00",
        "meta_object_name": "GAOFEN-1 03",
        "meta_object_id": "2018-031B",
        "meta_epoch": "2025-12-25T07:24:15.943104",
        "meta_mean_motion": 14.76461761,
        "meta_eccentricity": 0.00017381,
        "meta_inclination": 98.0781,
        "meta_ra_of_asc_node": 56.9773,
        "meta_arg_of_pericenter": 254.284,
        "meta_mean_anomaly": 105.8178,
        "meta_ephemeris_type": 0,
        "meta_classification_type": "U",
        "meta_norad_cat_id": 43260,
        "meta_element_set_no": 999,
        "meta_rev_at_epoch": 41703,
        "meta_bstar": 0.00014181653,
        "meta_mean_motion_dot": 9.35e-06,
        "meta_mean_motion_ddot": 0,
        "tle_line1": "1 43260U 18031B   25359.30851786  .00000935  00000+0  14182-3 0  9995",
        "tle_line2": "2 43260  98.0781  56.9773 0001738 254.2840 105.8178 14.76461761417039"
      },
      "geometry": {
        "type": "Point",
        "coordinates": [
          71.63469528954148,
          -60.036644358044384
        ]
      }
    }
  ]
}